{"type": "FeatureCollection", "features": [ {"type": "Feature", "properties": {"norad_id": 33492, "name": "GOSAT (IBUKI)", "group": "resource", "lat": 28.035455528832017, "lon": 88.91661791078633, "alt_km": 667.3607481111403, "timestamp": "2025-12-10T14:53:36.779347+00:00", "meta": {"OBJECT_NAME": "GOSAT (IBUKI)", "OBJECT_ID": "2009-002A", "EPOCH": "2025-12-10T06:34:58.842624", "MEAN_MOTION": 14.6754762, "ECCENTRICITY": 9.441e-05, "INCLINATION": 98.0768, "RA_OF_ASC_NODE": 92.9119, "ARG_OF_PERICENTER": 89.0594, "MEAN_ANOMALY": 271.0719, "EPHEMERIS_TYPE": 0, "CLASSIFICATION_TYPE": "U", "NORAD_CAT_ID": 33492, "ELEMENT_SET_NO": 999, "REV_AT_EPOCH": 90375, "BSTAR": 0.00027074921, "MEAN_MOTION_DOT": 1.488e-05, "MEAN_MOTION_DDOT": 0}, "tle": {"line1": "1 33492U 09002A   25344.27429216  .00001488  00000+0  27075-3 0  9997", "line2": "2 33492  98.0768  92.9119 0000944  89.0594 271.0719 14.67547620903757"}}, "geometry": {"type": "Point", "coordinates": [88.91661791078633, 28.035455528832017]}}, {"type": "Feature", "properties": {"norad_id": 35681, "name": "DEIMOS-1", "group": "resource", "lat": 49.22352041098268, "lon": 136.27901638735094, "alt_km": 639.2534662829403, "timestamp": "2025-12-10T14:53:36.779357+00:00", "meta": {"OBJECT_NAME": "DEIMOS-1", "OBJECT_ID": "2009-041A", "EPOCH": "2025-12-10T06:31:39.347616", "MEAN_MOTION": 14.74945249, "ECCENTRICITY": 0.00027547, "INCLINATION": 97.7149, "RA_OF_ASC_NODE": 144.99, "ARG_OF_PERICENTER": 83.6616, "MEAN_ANOMALY": 276.4907, "EPHEMERIS_TYPE": 0, "CLASSIFICATION_TYPE": "U", "NORAD_CAT_ID": 35681, "ELEMENT_SET_NO": 999, "REV_AT_EPOCH": 87903, "BSTAR": 0.00012954051, "MEAN_MOTION_DOT": 8.23e-06, "MEAN_MOTION_DDOT": 0}, "tle": {"line1": "1 35681U 09041A   25344.27198319  .00000823  00000+0  12954-3 0  9991", "line2": "2 35681  97.7149 144.9900 0002754  83.6616 276.4907 14.74945249879038"}}, "geometry": {"type": "Point", "coordinates": [136.27901638735094, 49.22352041098268]}}, {"type": "Feature", "properties": {"norad_id": 35682, "name": "DUBAISAT-1", "group": "resource", "lat": -12.527664613598603, "lon": 117.1174809188239, "alt_km": 644.7508523351471, "timestamp": "2025-12-10T14:53:36.779366+00:00", "meta": {"OBJECT_NAME": "DUBAISAT-1", "OBJECT_ID": "2009-041B", "EPOCH": "2025-12-10T06:48:28.596384", "MEAN_MOTION": 14.74593356, "ECCENTRICITY": 0.0009733, "INCLINATION": 97.9789, "RA_OF_ASC_NODE": 114.9997, "ARG_OF_PERICENTER": 323.0595, "MEAN_ANOMALY": 36.9943, "EPHEMERIS_TYPE": 0, "CLASSIFICATION_TYPE": "U", "NORAD_CAT_ID": 35682, "ELEMENT_SET_NO": 999, "REV_AT_EPOCH": 87725, "BSTAR": 0.00035029712, "MEAN_MOTION_DOT": 2.285e-05, "MEAN_MOTION_DDOT": 0}, "tle": {"line1": "1 35682U 09041B   25344.28366431  .00002285  00000+0  35030-3 0  9999", "line2": "2 35682  97.9789 114.9997 0009733 323.0595  36.9943 14.74593356877254"}}, "geometry": {"type": "Point", "coordinates": [117.1174809188239, -12.527664613598603]}}, {"type": "Feature", "properties": {"norad_id": 35931, "name": "OCEANSAT-2", "group": "resource", "lat": 15.757884978105999, "lon": -16.902166593923113, "alt_km": 885.9593280948884, "timestamp": "2025-12-10T14:53:36.779376+00:00", "meta": {"OBJECT_NAME": "OCEANSAT-2", "OBJECT_ID": "2009-051A", "EPOCH": "2025-12-10T07:57:18.176832", "MEAN_MOTION": 13.99625194, "ECCENTRICITY": 0.0016304, "INCLINATION": 98.2224, "RA_OF_ASC_NODE": 345.1764, "ARG_OF_PERICENTER": 51.3482, "MEAN_ANOMALY": 308.9141, "EPHEMERIS_TYPE": 0, "CLASSIFICATION_TYPE": "U", "NORAD_CAT_ID": 35931, "ELEMENT_SET_NO": 999, "REV_AT_EPOCH": 85291, "BSTAR": -7.2969583e-05, "MEAN_MOTION_DOT": -1.44e-06, "MEAN_MOTION_DDOT": 0}, "tle": {"line1": "1 35931U 09051A   25344.33146038 -.00000144  00000+0 -72970-4 0  9991", "line2": "2 35931  98.2224 345.1764 0016304  51.3482 308.9141 13.99625194852917"}}, "geometry": {"type": "Point", "coordinates": [-16.902166593923113, 15.757884978105999]}}, {"type": "Feature", "properties": {"norad_id": 35946, "name": "WORLDVIEW-2 (WV-2)", "group": "resource", "lat": -27.24066848209986, "lon": -128.66893368734793, "alt_km": 774.7206072262989, "timestamp": "2025-12-10T14:53:36.779386+00:00", "meta": {"OBJECT_NAME": "WORLDVIEW-2 (WV-2)", "OBJECT_ID": "2009-055A", "EPOCH": "2025-12-10T07:15:02.106144", "MEAN_MOTION": 14.37651126, "ECCENTRICITY": 0.00053435, "INCLINATION": 98.4762, "RA_OF_ASC_NODE": 55.4202, "ARG_OF_PERICENTER": 72.8448, "MEAN_ANOMALY": 287.3323, "EPHEMERIS_TYPE": 0, "CLASSIFICATION_TYPE": "U", "NORAD_CAT_ID": 35946, "ELEMENT_SET_NO": 999, "REV_AT_EPOCH": 84850, "BSTAR": 0.00011608695, "MEAN_MOTION_DOT": 3.05e-06, "MEAN_MOTION_DDOT": 0}, "tle": {"line1": "1 35946U 09055A   25344.30210771  .00000305  00000+0  11609-3 0  9992", "line2": "2 35946  98.4762  55.4202 0005343  72.8448 287.3323 14.37651126848500"}}, "geometry": {"type": "Point", "coordinates": [-128.66893368734793, -27.24066848209986]}}, {"type": "Feature", "properties": {"norad_id": 36036, "name": "SMOS", "group": "resource", "lat": -46.62242891133065, "lon": -19.33841780524516, "alt_km": 766.7676614629818, "timestamp": "2025-12-10T14:53:36.779395+00:00", "meta": {"OBJECT_NAME": "SMOS", "OBJECT_ID": "2009-059A", "EPOCH": "2025-12-10T02:09:57.515328", "MEAN_MOTION": 14.39737496, "ECCENTRICITY": 0.00011096, "INCLINATION": 98.4382, "RA_OF_ASC_NODE": 169.1779, "ARG_OF_PERICENTER": 84.668, "MEAN_ANOMALY": 275.4635, "EPHEMERIS_TYPE": 0, "CLASSIFICATION_TYPE": "U", "NORAD_CAT_ID": 36036, "ELEMENT_SET_NO": 999, "REV_AT_EPOCH": 84624, "BSTAR": 0.00020312239, "MEAN_MOTION_DOT": 5.93e-06, "MEAN_MOTION_DDOT": 0}, "tle": {"line1": "1 36036U 09059A   25344.09024902  .00000593  00000+0  20312-3 0  9992", "line2": "2 36036  98.4382 169.1779 0001109  84.6680 275.4635 14.39737496846246"}}, "geometry": {"type": "Point", "coordinates": [-19.33841780524516, -46.62242891133065]}}, {"type": "Feature", "properties": {"norad_id": 36110, "name": "YAOGAN-7", "group": "resource", "lat": 56.35273795023827, "lon": 58.630706390084306, "alt_km": 647.0627374046053, "timestamp": "2025-12-10T14:53:36.779405+00:00", "meta": {"OBJECT_NAME": "YAOGAN-7", "OBJECT_ID": "2009-069A", "EPOCH": "2025-12-10T06:12:47.379744", "MEAN_MOTION": 14.77726743, "ECCENTRICITY": 0.00234361, "INCLINATION": 98.0302, "RA_OF_ASC_NODE": 226.0248, "ARG_OF_PERICENTER": 289.742, "MEAN_ANOMALY": 70.1263, "EPHEMERIS_TYPE": 0, "CLASSIFICATION_TYPE": "U", "NORAD_CAT_ID": 36110, "ELEMENT_SET_NO": 999, "REV_AT_EPOCH": 86172, "BSTAR": 0.00016076431, "MEAN_MOTION_DOT": 1.104e-05, "MEAN_MOTION_DDOT": 0}, "tle": {"line1": "1 36110U 09069A   25344.25888171  .00001104  00000+0  16076-3 0  9991", "line2": "2 36110  98.0302 226.0248 0023436 289.7420  70.1263 14.77726743861720"}}, "geometry": {"type": "Point", "coordinates": [58.630706390084306, 56.35273795023827]}}, {"type": "Feature", "properties": {"norad_id": 36605, "name": "TANDEM-X", "group": "resource", "lat": 52.323093550069, "lon": -19.716572241675603, "alt_km": 502.3578426715376, "timestamp": "2025-12-10T14:53:36.779414+00:00", "meta": {"OBJECT_NAME": "TANDEM-X", "OBJECT_ID": "2010-030A", "EPOCH": "2025-12-09T11:47:13.197408", "MEAN_MOTION": 15.19145601, "ECCENTRICITY": 0.0002009, "INCLINATION": 97.445, "RA_OF_ASC_NODE": 348.9195, "ARG_OF_PERICENTER": 85.8365, "MEAN_ANOMALY": 274.3099, "EPHEMERIS_TYPE": 0, "CLASSIFICATION_TYPE": "U", "NORAD_CAT_ID": 36605, "ELEMENT_SET_NO": 999, "REV_AT_EPOCH": 85784, "BSTAR": 0.00012722, "MEAN_MOTION_DOT": 2.605e-05, "MEAN_MOTION_DDOT": 0}, "tle": {"line1": "1 36605U 10030A   25343.49112497  .00002605  00000+0  12722-3 0  9997", "line2": "2 36605  97.4450 348.9195 0002009  85.8365 274.3099 15.19145601857845"}}, "geometry": {"type": "Point", "coordinates": [-19.716572241675603, 52.323093550069]}}, {"type": "Feature", "properties": {"norad_id": 36795, "name": "CARTOSAT-2B", "group": "resource", "lat": 41.850087731480485, "lon": 26.68107527576599, "alt_km": 622.9498339374122, "timestamp": "2025-12-10T14:53:36.779423+00:00", "meta": {"OBJECT_NAME": "CARTOSAT-2B", "OBJECT_ID": "2010-035A", "EPOCH": "2025-12-10T08:12:25.965216", "MEAN_MOTION": 14.78783123, "ECCENTRICITY": 0.00129357, "INCLINATION": 97.7851, "RA_OF_ASC_NODE": 33.4501, "ARG_OF_PERICENTER": 84.3014, "MEAN_ANOMALY": 275.9672, "EPHEMERIS_TYPE": 0, "CLASSIFICATION_TYPE": "U", "NORAD_CAT_ID": 36795, "ELEMENT_SET_NO": 999, "REV_AT_EPOCH": 83194, "BSTAR": 0.0001214376, "MEAN_MOTION_DOT": 8.43e-06, "MEAN_MOTION_DDOT": 0}, "tle": {"line1": "1 36795U 10035A   25344.34196719  .00000843  00000+0  12144-3 0  9996", "line2": "2 36795  97.7851  33.4501 0012935  84.3014 275.9672 14.78783123831942"}}, "geometry": {"type": "Point", "coordinates": [26.68107527576599, 41.850087731480485]}}, {"type": "Feature", "properties": {"norad_id": 36834, "name": "YAOGAN-10", "group": "resource", "lat": 75.67965497093128, "lon": -28.563878616023903, "alt_km": 606.6872430486101, "timestamp": "2025-12-10T14:53:36.779433+00:00", "meta": {"OBJECT_NAME": "YAOGAN-10", "OBJECT_ID": "2010-038A", "EPOCH": "2025-12-10T08:19:37.057152", "MEAN_MOTION": 14.84591386, "ECCENTRICITY": 0.00014376, "INCLINATION": 97.9143, "RA_OF_ASC_NODE": 4.1852, "ARG_OF_PERICENTER": 83.374, "MEAN_ANOMALY": 333.268, "EPHEMERIS_TYPE": 0, "CLASSIFICATION_TYPE": "U", "NORAD_CAT_ID": 36834, "ELEMENT_SET_NO": 999, "REV_AT_EPOCH": 82918, "BSTAR": 0.00039078267, "MEAN_MOTION_DOT": 3.247e-05, "MEAN_MOTION_DDOT": 0}, "tle": {"line1": "1 36834U 10038A   25344.34695668  .00003247  00000+0  39078-3 0  9996", "line2": "2 36834  97.9143   4.1852 0001437  83.3740 333.2680 14.84591386829181"}}, "geometry": {"type": "Point", "coordinates": [-28.563878616023903, 75.67965497093128]}}]}